{
  "type": "FeatureCollection",
  "features": [
    {
      "type": "Feature",
      "properties": {
        "norad_id": 50032,
        "name": "COSMOS 1408 DEB",
        "group": "cosmos-1408-debris",
        "lat": -52.21417003388321,
        "lon": 34.50845178291324,
        "alt_km": 445.70517435038346,
        "timestamp": "2025-12-26T16:33:55.842703+00:00",
        "meta_object_name": "COSMOS 1408 DEB",
        "meta_object_id": "1982-092RU",
        "meta_epoch": "2025-12-25T14:23:00.706272",
        "meta_mean_motion": 15.45820267,
        "meta_eccentricity": 0.0016562,
        "meta_inclination": 82.5629,
        "meta_ra_of_asc_node": 45.327,
        "meta_arg_of_pericenter": 161.3291,
        "meta_mean_anomaly": 198.8569,
        "meta_ephemeris_type": 0,
        "meta_classification_type": "U",
        "meta_norad_cat_id": 50032,
        "meta_element_set_no": 999,
        "meta_rev_at_epoch": 22802,
        "meta_bstar": 0.00010522,
        "meta_mean_motion_dot": 5.167e-05,
        "meta_mean_motion_ddot": 0,
        "tle_line1": "1 50032U 82092RU  25359.59931373  .00005167  00000+0  10522-3 0  9996",
        "tle_line2": "2 50032  82.5629  45.3270 0016562 161.3291 198.8569 15.45820267228028"
      },
      "geometry": {
        "type": "Point",
        "coordinates": [
          34.50845178291324,
          -52.21417003388321
        ]
      }
    },
    {
      "type": "Feature",
      "properties": {
        "norad_id": 50058,
        "name": "COSMOS 1408 DEB",
        "group": "cosmos-1408-debris",
        "lat": 8.990161752777555,
        "lon": 55.90701951222648,
        "alt_km": 367.3941168916981,
        "timestamp": "2025-12-26T16:33:55.842720+00:00",
        "meta_object_name": "COSMOS 1408 DEB",
        "meta_object_id": "1982-092SW",
        "meta_epoch": "2025-12-26T04:14:59.730144",
        "meta_mean_motion": 15.64916769,
        "meta_eccentricity": 0.00157548,
        "meta_inclination": 82.6117,
        "meta_ra_of_asc_node": 55.2685,
        "meta_arg_of_pericenter": 53.2736,
        "meta_mean_anomaly": 306.9967,
        "meta_ephemeris_type": 0,
        "meta_classification_type": "U",
        "meta_norad_cat_id": 50058,
        "meta_element_set_no": 999,
        "meta_rev_at_epoch": 23014,
        "meta_bstar": 0.00032134543,
        "meta_mean_motion_dot": 0.00031703,
        "meta_mean_motion_ddot": 0,
        "tle_line1": "1 50058U 82092SW  25360.17708021  .00031703  00000+0  32135-3 0  9991",
        "tle_line2": "2 50058  82.6117  55.2685 0015754  53.2736 306.9967 15.64916769230148"
      },
      "geometry": {
        "type": "Point",
        "coordinates": [
          55.90701951222648,
          8.990161752777555
        ]
      }
    },
    {
      "type": "Feature",
      "properties": {
        "norad_id": 50404,
        "name": "COSMOS 1408 DEB",
        "group": "cosmos-1408-debris",
        "lat": 29.242007279381575,
        "lon": 16.32719320752285,
        "alt_km": 401.84482007126735,
        "timestamp": "2025-12-26T16:33:55.842731+00:00",
        "meta_object_name": "COSMOS 1408 DEB",
        "meta_object_id": "1982-092ADS",
        "meta_epoch": "2025-12-25T00:18:07.841664",
        "meta_mean_motion": 15.15742025,
        "meta_eccentricity": 0.01667949,
        "meta_inclination": 82.202,
        "meta_ra_of_asc_node": 202.4509,
        "meta_arg_of_pericenter": 156.6613,
        "meta_mean_anomaly": 204.2309,
        "meta_ephemeris_type": 0,
        "meta_classification_type": "U",
        "meta_norad_cat_id": 50404,
        "meta_element_set_no": 999,
        "meta_rev_at_epoch": 21379,
        "meta_bstar": 0.0033615862,
        "meta_mean_motion_dot": 0.00092417,
        "meta_mean_motion_ddot": 0,
        "tle_line1": "1 50404U 82092ADS 25359.01259076  .00092417  00000+0  33616-2 0  9991",
        "tle_line2": "2 50404  82.2020 202.4509 0166794 156.6613 204.2309 15.15742025213796"
      },
      "geometry": {
        "type": "Point",
        "coordinates": [
          16.32719320752285,
          29.242007279381575
        ]
      }
    },
    {
      "type": "Feature",
      "properties": {
        "norad_id": 50621,
        "name": "COSMOS 1408 DEB",
        "group": "cosmos-1408-debris",
        "lat": 8.926244594591083,
        "lon": 60.82419279927855,
        "alt_km": 398.2728048774243,
        "timestamp": "2025-12-26T16:33:55.842742+00:00",
        "meta_object_name": "COSMOS 1408 DEB",
        "meta_object_id": "1982-092ALR",
        "meta_epoch": "2025-12-26T04:11:24.957888",
        "meta_mean_motion": 15.573508,
        "meta_eccentricity": 0.00292955,
        "meta_inclination": 82.5694,
        "meta_ra_of_asc_node": 60.187,
        "meta_arg_of_pericenter": 104.4386,
        "meta_mean_anomaly": 256.0123,
        "meta_ephemeris_type": 0,
        "meta_classification_type": "U",
        "meta_norad_cat_id": 50621,
        "meta_element_set_no": 999,
        "meta_rev_at_epoch": 22459,
        "meta_bstar": 0.00035610621,
        "meta_mean_motion_dot": 0.00026635,
        "meta_mean_motion_ddot": 0,
        "tle_line1": "1 50621U 82092ALR 25360.17459442  .00026635  00000+0  35611-3 0  9997",
        "tle_line2": "2 50621  82.5694  60.1870 0029295 104.4386 256.0123 15.57350800224590"
      },
      "geometry": {
        "type": "Point",
        "coordinates": [
          60.82419279927855,
          8.926244594591083
        ]
      }
    }
  ]
}